IRIDIUM 26              
1 24903U 97043A   24315.39575937  .00001816  00000+0  60928-3 0  9997
2 24903  86.4014 202.4183 0002381  83.2693 276.8775 14.36785786425321
IRIDIUM 22              
1 24907U 97043E   24315.42635024  .00001677  00000+0  57499-3 0  9993
2 24907  86.4016 205.7541 0002134  81.0854 279.0584 14.35639383425381
DUMMY MASS 1            
1 24925U 97048A   24315.34839616  .00001965  00000+0  21854-3 0  9998
2 24925  86.3372 236.4137 0006099 180.5199 179.6021 14.86605920472613
DUMMY MASS 2            
1 24926U 97048B   24315.54355397  .00001773  00000+0  19811-3 0  9997
2 24926  86.3367 237.8916 0006369 194.4732 165.6311 14.86360665472425
IRIDIUM 29              
1 24944U 97051A   24315.03509854  .00002132  00000+0  72614-3 0  9994
2 24944  86.3981 235.7224 0002076  83.2728 276.8706 14.36095076421813
IRIDIUM 33              
1 24946U 97051C   24315.48206316  .00001374  00000+0  47921-3 0  9992
2 24946  86.3897 234.7823 0010098  74.6621 285.5690 14.34640366421381
IRIDIUM 28              
1 24948U 97051E   24315.49939226  .00002065  00000+0  69005-3 0  9993
2 24948  86.3986 233.1684 0002759  83.6986 276.4526 14.37044883422438
